 1996  625 0337 31.0 L  61.689   3.259 15.0  TES 35 3.0 3.3LTES 3.0CTES 3.2LNAO1
      85.0      56.4    -127.1                               0    TES PINV     F
      61.0      68.0    -148.0 15.0 20.0 10.0  0.0  0.1           TES FPFIT    F
  155.5000   61.9800   67.2000                               0    TES FOCMEC   F
 GAP=153       21.09      35.7    89.2 64.7 -0.6060E+03  0.8503E+03  0.5203E+00E
 1996  625 0337 31.9 L                       BER        3.1WBER                1
     327.2      62.0     -11.2     0                                           3
 ACTION:SPL 08-10-02 10:19 OP:jh   STATUS:               ID:19960625033731     I
 1996-06-25-0337-20S.NNSN__039                                                 6
 STAT SP IPHASW D HRMM SECON CODA AMPLIT PERI AZIMU VELO AIN AR TRES W  DIS CAZ7
 OSG  SZ EP   2    337 53.17   78                         50    1.51 5  134 189 
 OSG  SE ES   2    338  9.32                              50    2.39 5  134 189 
 OSG  AN E         338  9.42                                            134 189 
 MOL  AZ E         338  6.65                                            244  64 
 MOL  SN ES        338 30.77                              50    0.0710  244  64 
 MOL  SN  IAML     338 42.68       684.7  0.4                           244  64 
 LRW  SZ EP   2   0338 13.79                  241.0       50171 2.00 5  296 236 
 LRW  SE ES   3   0338 43.75                  241.0       50171 1.78 2  296 236 
 LRW  SN          0338 46.26         87. 0.16 241.0         171         296 236 
 LRW  SE          0338 46.49         88. 0.19 241.0         171         296 236 
 KMY  SN ES        338 40.66                              50   -1.4010  297 158 
 KMY  SN  IAML     338 42.79       354.2  0.2                           297 158 
 KONO BN EP        338 25.88                              50   -0.5510  414 120 
 KONO BZ IP        338 26.15                                            414 120 
 KONO BN ES        339  5.37                              50   -2.0610  414 120 
 KONO BZ ES        339  5.62                                            414 120 
 KONO BN  IAML     339  7.18        79.2  0.2                           414 120 
 OWE  SZ EP   3   0338 31.19                  237.0       49173 2.29 2  435 235 
 NRA0 SZ  Pn      0338 31.04                  293.2  9.0  50  6-0.7610  457 100 
 NRA0 SZ  Sn      0339 15.87                  296.7  4.8  50 10-0.9110  457 100 
 NRA0 SZ  Lg      0339 34.54                  280.9  4.2   0 -5-3.5110  457 100 
 OHO  SZ EP   3   0338 36.20                  233.0       49173 1.77 2  480 231 
 OBR  SZ EP   2   0338 37.79                  230.0       49173 1.68 5  494 229 
 ORE  SZ EP   2   0338 41.59                  232.0       49173 1.89 5  524 231 
 NSS  SN EP        338 43.13  288                         49    1.3310  541  50 
 NSS  SN ES        339 35.79                              49    1.6110  541  50 
 MFI  SZ EP   3   0338 44.24                  218.0       49174 1.19 2  551 217 
 OTO  SZ EP   2   0338 45.15                  234.0       49173 1.72 5  554 233 
 MCD  SZ EP   2   0338 48.65                  222.0       49174 1.41 5  586 222 
 MCD  SE ES   3   0339 43.99                  222.0       49174 0.34 2  586 222 
 HFS  SZ  Pn      0338 47.52                  287.4  7.9  50 -3-0.9410  591 102 
 HFS  SZ  Sn      0339 43.36                  284.1  4.4  50 -6-2.4010  591 102 
 HFS  SZ  Lg      0340 15.43                  298.8  3.6   0  7 0.1410  591 102 
 MDO  SZ EP   3   0338 55.69                  225.0       49174 1.97 2  639 226 
 EDU  SZ EP   3   0338 59.60                  215.0       49174 1.50 2  675 215 
 ESY  SZ EP   3   0339  5.89                  210.0       47175 1.75 2  726 210 
 MOR8 SZ IP        339 10.07                              47    4.2810  740  43 
 MOR8 SZ ES        340 25.51                              47    9.5910  740  43 
 EDI  SZ EP   3   0339  7.61                  213.0       47174 1.69 2  742 213 
 EDI  SN ES   3   0340 16.07                  213.0       47174-0.08 2  742 213 
 LOF  SZ EP        339 22.01                              47    1.5410  865  30 
 FIA0 SZ  Pn      0340 03.10                  288.5 10.2  50  7-1.78 9 1207  81 
 FIA0 SZ  Sn      0341 56.30                  276.7  4.9  50 -4-2.44 9 1207  81 
 FIA0 SZ  Lg      0343 03.23                  278.6  4.0   0 -2-2.99 9 1207  81 
 ARA0 SZ  Pn      0340 18.38                  232.4  8.3  50 -7-2.41 8 1335  40 
 ARA0 SZ  Sn      0342 25.26                  229.0  5.3  50-10-1.16 8 1335  40 
 ARA0 SZ  Lg      0343 45.98                               0    4.24 8 1335  40 
 APA0 SZ  Pn      0340 46.00                              50   -1.17 6 1547  52 
 APA0 SZ  Sn      0343 08.53                              50   -3.78 6 1547  52 
 APA0 SZ  Lg      0344 42.46                               0    1.70 6 1547  52 
 BER  SZ IP     C  337 57.79                              50            184 141 
 BLS5 SZ IP     C  338 13.65  229                         50            307 144 
 BLS5 SZ ES        338 42.38                              50   -2.0410  307 144 
 BLS5 SZ  IAML     338 43.82       481.2 0.20                           307 144 
 EGD  SZ IP     C  337 58.78  169                         50            191 145 
 FOO  SZ IP     D  337 46.07  147                         70           95.1  95 
 FOO  SZ IS        337 56.01                              70   -1.2710 95.1  95 
 FOO  SZ  IAML     337 58.79      1481.9 0.30                          95.1  95 
 HYA  SZ IP     D  337 55.46  153                         50            167 109 
 HYA  SZ ES        338 13.94                              50    0.0010  167 109 
 HYA  SZ  IAML     338 19.41      1660.5 0.70                           167 109 
 KMY  SZ IP     C  338 12.10  130                         50            297 158 
 MOL  SZ IP     C  338  6.18  246                         50            244  64 
 ASK  SZ IP     C  337 56.27  204                         50            170 141 
 SUE  SZ IP     D  337 47.84  155                         70            107 131 
 SUE  SZ ES        337 58.95                              70   -1.4010  107 131 
 SUE  SZ  IAML     337 59.32      1243.7 0.50                           107 131 
 SUE  AZ E         337 58.97                                            107 131 
                                                                                
