 2003  527 0300 57.8 L  35.807  51.939 12.6  TTS 10 0.2 1.4LTTS                1
     146.0      38.0      69.0 13.0 25.0 10.0  0.0  0.1           TTS FPFIT    F
      13.8      83.4      91.4                               2    TTS PINV     F
   19.7400   70.0000   90.0000                               0    TTS FOCMEC   F
 GAP=139        0.49       1.0     1.8  6.6 -0.6479E+00  0.5620E+01 -0.4312E+01E
 ACTION:UP  16-03-12 15:14 OP:123  STATUS:               ID:20030527025848     I
 OLDACT:UP  16-03-12 15:06 OP:123  STATUS:               ID:20030527025848     3
 OLDACT:UP  16-03-12 15:03 OP:123  STATUS:               ID:20030527025848     3
 OLDACT:SPL 16-03-12 14:45 OP:1234 STATUS:               ID:20030527025848     3
 2003-05-27-0258-48S.TTSNN_054                                                 6
 STAT SP IPHASW D HRMM SECON CODA AMPLIT PERI AZIMU VELO AIN AR TRES W  DIS CAZ7
 L1   BZ EPg    C  3 1  1.62                             113   -0.1910 19.8 172 
 L1   BN ESg       3 1  4.63                             113   -0.1210 19.8 172 
 L1   BN  IAML     3 1  4.91       213.5 0.32                          19.8 172 
 L2   BZ EPg    D  3 1  4.68                              94   -0.19 9 38.9  32 
 L2   BN ESg       3 1  9.80                              94   -0.24 9 38.9  32 
 L2   BN  IAML     3 1 10.82        12.5 0.18                          38.9  32 
 T5   BZ EPg    D  3 1  5.63                              93   -0.00 9 43.5   9 
 T5   BN ESg       3 1 11.38                              93    0.01 9 43.5   9 
 N6   BZ EPg       3 1  8.32                              91    0.24 9 58.1 324 
 N6   BN ESg       3 1 15.72                              91    0.12 9 58.1 324 
 J2   BZ EPg    D  3 1  8.86                              91    0.11 8 62.2 304 
 J2   BN ESg       3 1 16.47                              91   -0.30 8 62.2 304 
 J2   BN  IAML     3 1 18.62       112.9 0.18                          62.2 304 
 N9   BZ EPg       3 1 10.83                              91   -0.20 8 76.4 284 
 N9   BN  IAML     3 1 20.41        13.8 0.26                          76.4 284 
 Z9   BZ EPg       3 1 12.48                              91    0.49 8 82.8 222 
 N4   BZ EPg    D  3 1 13.21                              91    0.25 8 88.5 316 
 N4   BN  IAML     3 1 25.72         4.1 0.22                          88.5 316 
 VRN  BZ EPg    D  3 1 13.63                              91    0.10 7 92.1 192 
 VRN  BN ESg       3 1 25.22                              91    0.19 7 92.1 192 
 Z8   BZ EPg    D  3 1 17.04                              90   -0.02 7  113 236 
 Z8   BN ESg       3 1 31.29                              90    0.16 7  113 236 
 DMV  BZ EPg  4 C  3 1 11.77                                                    
                                                                                
 2003  530 1810 22.5 L  35.239  51.388 12.7  TTS 10 0.2 1.3LTTS                1
      37.0      38.0      98.0  7.0 18.0 24.0  0.1  0.2           TTS FPFIT    F
      42.9       7.6    -177.5                               2    TTS PINV     F
  186.1600   43.9600   60.4800                               1    TTS FOCMEC   F
 GAP= 82        0.52       1.0     1.3  2.1 -0.3961E+00 -0.1037E+01  0.5530E+00E
 ACTION:UP  16-03-12 15:37 OP:123  STATUS:               ID:20030530180843     I
 OLDACT:SPL 16-03-12 14:45 OP:1234 STATUS:               ID:20030530180843     3
 OLDACT:SPL 16-01-10 17:40 OP:1234 STATUS:               ID:20030530180843     3
 2003-05-30-1808-43S.TTSNN_081                                                 6
 STAT SP IPHASW D HRMM SECON CODA AMPLIT PERI AZIMU VELO AIN AR TRES W  DIS CAZ7
 Z9   BZ EPg    C 1810 24.26                             151   -0.3310 5.52 284 
 Z9   BE ESg      1810 26.13                             151   -0.0110 5.52 284 
 K1   BZ EPg    D 1810 26.40                             112   -0.0110 19.6 339 
 K1   BE ESg      1810 29.73                             112    0.4410 19.6 339 
 K1   BN  IAML    1810 30.41       260.5 0.48                          19.6 339 
 Z7   BZ EPg    D 1810 29.53                              93   -0.15 9 40.1 247 
 Z7   BE ESg      1810 34.98                              93    0.02 9 40.1 247 
 VRN  BZ EPg    D 1810 29.74                              93   -0.12 9 41.1 131 
 VRN  BE ESg      1810 35.63                              93    0.37 9 41.1 131 
 Z8   BZ EPg    C 1810 30.54                              92    0.12 9 44.4 270 
 QOM  BZ EPg    C 1810 31.81                              92   -0.05 9 52.7 213 
 QOM  BE ESg      1810 38.83                              92    0.10 9 52.7 213 
 L1   BZ EPg    D 1810 34.21                              91   -0.18 8 68.5  50 
 L1   BE ESg      1810 43.09                              91   -0.01 8 68.5  50 
 L1   BN  IAML    1810 46.37         4.2 0.28                          68.5  50 
 J1   BZ EPg      1810 35.80                              91   -0.18 8 78.0 342 
 J1   BN  IAML    1810 46.14        39.0 0.32                          78.0 342 
 L2   BZ EPg    C 1810 42.44                              90   -0.26 6  119  36 
 L2   BN ESg      1810 57.29                              90   -0.19 6  119  36 
 L2   BN  IAML    1810 57.49         1.8 0.24                           119  36 
 K3   BZ EPg      1810 45.04                              90    0.25 6  132  15 
 K3   BE ESg      1811  1.14                              90    0.05 6  132  15 
 K3   BN  IAML    1811  1.94        12.6 0.22                           132  15 
 RAZ  BZ EPg  4   1810 44.35                              90   -0.79 0  134 278 
 RAZ  BN ESg  4   1811  1.01                              90   -0.69 0  134 278 

